{
"type": "FeatureCollection",
"name": "priority_roads_level1",
"crs": { "type": "name", "properties": { "name": "urn:ogc:def:crs:OGC:1.3:CRS84" } },
"features": [
{ "type": "Feature", "properties": { "u": 389414184, "v": 501816742, "key": 0, "osmid": "33995217", "highway": [ "trunk" ], "oneway": true, "reversed": "False", "length": 187.78270579250676, "lanes": "2", "name": "国道12号", "ref": "12", "bridge": null, "maxspeed": null, "tunnel": null, "priority": 4 }, "geometry": { "type": "LineString", "coordinates": [ [ 141.890203, 43.4334573 ], [ 141.8897847, 43.4319531 ], [ 141.8896581, 43.4318293 ] ] } },
{ "type": "Feature", "properties": { "u": 389414186, "v": 2350615424, "key": 0, "osmid": "33995218", "highway": [ "trunk" ], "oneway": true, "reversed": "False", "length": 181.29116821548146, "lanes": "2", "name": "国道12号", "ref": "12", "bridge": null, "maxspeed": null, "tunnel": null, "priority": 4 }, "geometry": { "type": "LineString", "coordinates": [ [ 141.890062699999987, 43.4334785 ], [ 141.89052860000001, 43.4350734 ] ] } },
{ "type": "Feature", "properties": { "u": 389414188, "v": 3010041389, "key": 0, "osmid": "33995217", "highway": [ "trunk" ], "oneway": true, "reversed": "False", "length": 565.35599695254405, "lanes": "2", "name": "国道12号", "ref": "12", "bridge": null, "maxspeed": null, "tunnel": null, "priority": 4 }, "geometry": { "type": "LineString", "coordinates": [ [ 141.8955627, 43.4517009 ], [ 141.894105599999989, 43.4467278 ] ] } },
{ "type": "Feature", "properties": { "u": 389414190, "v": 2350616840, "key": 0, "osmid": "33995218", "highway": [ "trunk" ], "oneway": true, "reversed": "False", "length": 188.85431502837437, "lanes": "2", "name": "国道12号", "ref": "12", "bridge": null, "maxspeed": null, "tunnel": null, "priority": 4 }, "geometry": { "type": "LineString", "coordinates": [ [ 141.895425, 43.4517205 ], [ 141.895894199999987, 43.4533844 ] ] } },
{ "type": "Feature", "properties": { "u": 392661608, "v": 1938412708, "key": 0, "osmid": "183465917", "highway": [ "trunk" ], "oneway": false, "reversed": "False", "length": 121.40110531002222, "lanes": "2", "name": "国道12号", "ref": "12", "bridge": null, "maxspeed": null, "tunnel": null, "priority": 4 }, "geometry": { "type": "LineString", "coordinates": [ [ 141.886714399999988, 43.4219231 ], [ 141.8867634, 43.4220859 ], [ 141.8870316, 43.4229903 ] ] } },
{ "type": "Feature", "properties": { "u": 392661608, "v": 1938412531, "key": 0, "osmid": "183466247", "highway": [ "trunk" ], "oneway": false, "reversed": "True", "length": 99.404213356859813, "lanes": "4", "name": "国道12号", "ref": "12", "bridge": null, "maxspeed": null, "tunnel": null, "priority": 4 }, "geometry": { "type": "LineString", "coordinates": [ [ 141.886714399999988, 43.4219231 ], [ 141.8866756, 43.4217673 ], [ 141.886467900000014, 43.4210473 ] ] } },
{ "type": "Feature", "properties": { "u": 501816742, "v": 1938413370, "key": 0, "osmid": "815757987", "highway": [ "trunk" ], "oneway": false, "reversed": "True", "length": 106.39926896894194, "lanes": "2", "name": "国道12号", "ref": "12", "bridge": null, "maxspeed": null, "tunnel": null, "priority": 4 }, "geometry": { "type": "LineString", "coordinates": [ [ 141.8896581, 43.4318293 ], [ 141.889353199999988, 43.4308984 ] ] } },
{ "type": "Feature", "properties": { "u": 501816742, "v": 389414186, "key": 0, "osmid": "33995218", "highway": [ "trunk" ], "oneway": true, "reversed": "False", "length": 187.13398008295738, "lanes": "2", "name": "国道12号", "ref": "12", "bridge": null, "maxspeed": null, "tunnel": null, "priority": 4 }, "geometry": { "type": "LineString", "coordinates": [ [ 141.8896581, 43.4318293 ], [ 141.8896312, 43.4319847 ], [ 141.890062699999987, 43.4334785 ] ] } },
{ "type": "Feature", "properties": { "u": 1938411892, "v": 1938411942, "key": 0, "osmid": "426223672", "highway": [ "trunk" ], "oneway": true, "reversed": "False", "length": 317.23842736122231, "lanes": "2", "name": "国道12号", "ref": "12", "bridge": null, "maxspeed": "50", "tunnel": null, "priority": 4 }, "geometry": { "type": "LineString", "coordinates": [ [ 141.880842800000011, 43.4020847 ], [ 141.8816392, 43.4048784 ] ] } },
{ "type": "Feature", "properties": { "u": 1938411939, "v": 1938411889, "key": 0, "osmid": "682230201", "highway": [ "trunk" ], "oneway": true, "reversed": "False", "length": 318.11549463633435, "lanes": "2", "name": "国道12号", "ref": "12", "bridge": null, "maxspeed": "50", "tunnel": null, "priority": 4 }, "geometry": { "type": "LineString", "coordinates": [ [ 141.8817602, 43.4048596 ], [ 141.8809708, 43.4020568 ] ] } },
{ "type": "Feature", "properties": { "u": 1938411942, "v": 2350611965, "key": 0, "osmid": [ 426223672, 183466248, 426223671 ], "highway": [ "trunk" ], "oneway": true, "reversed": "False", "length": 471.636076889945, "lanes": "2", "name": "国道12号", "ref": "12", "bridge": "yes", "maxspeed": "50", "tunnel": null, "priority": 4 }, "geometry": { "type": "LineString", "coordinates": [ [ 141.8816392, 43.4048784 ], [ 141.8819674, 43.4060042 ], [ 141.8821, 43.406459 ], [ 141.8828552, 43.4090269 ] ] } },
{ "type": "Feature", "properties": { "u": 1938412034, "v": 7838309217, "key": 0, "osmid": "34238297", "highway": [ "trunk" ], "oneway": true, "reversed": "False", "length": 341.12252105391354, "lanes": "2", "name": "国道12号", "ref": "12", "bridge": null, "maxspeed": null, "tunnel": null, "priority": 4 }, "geometry": { "type": "LineString", "coordinates": [ [ 141.883879400000012, 43.4120007 ], [ 141.882990799999988, 43.4090016 ] ] } },
{ "type": "Feature", "properties": { "u": 1938412036, "v": 1938412163, "key": 0, "osmid": "183466248", "highway": [ "trunk" ], "oneway": true, "reversed": "False", "length": 563.7577695775725, "lanes": "2", "name": "国道12号", "ref": "12", "bridge": null, "maxspeed": null, "tunnel": null, "priority": 4 }, "geometry": { "type": "LineString", "coordinates": [ [ 141.8837464, 43.4120208 ], [ 141.885167599999988, 43.4168444 ], [ 141.8852822, 43.4169534 ] ] } },
{ "type": "Feature", "properties": { "u": 1938412163, "v": 1938412244, "key": 0, "osmid": "34238293", "highway": [ "trunk" ], "oneway": false, "reversed": "False", "length": 98.543814569709184, "lanes": "4", "name": "国道12号", "ref": "12", "bridge": null, "maxspeed": null, "tunnel": null, "priority": 4 }, "geometry": { "type": "LineString", "coordinates": [ [ 141.8852822, 43.4169534 ], [ 141.8855513, 43.4178178 ] ] } },
{ "type": "Feature", "properties": { "u": 1938412163, "v": 1938412034, "key": 0, "osmid": "34238297", "highway": [ "trunk" ], "oneway": true, "reversed": "False", "length": 563.11339888624855, "lanes": "2", "name": "国道12号", "ref": "12", "bridge": null, "maxspeed": null, "tunnel": null, "priority": 4 }, "geometry": { "type": "LineString", "coordinates": [ [ 141.8852822, 43.4169534 ], [ 141.885307, 43.416822 ], [ 141.883879400000012, 43.4120007 ] ] } },
{ "type": "Feature", "properties": { "u": 1938412244, "v": 1938412320, "key": 0, "osmid": "34238293", "highway": [ "trunk" ], "oneway": false, "reversed": "False", "length": 92.134138957619854, "lanes": "4", "name": "国道12号", "ref": "12", "bridge": null, "maxspeed": null, "tunnel": null, "priority": 4 }, "geometry": { "type": "LineString", "coordinates": [ [ 141.8855513, 43.4178178 ], [ 141.885785700000014, 43.4186287 ] ] } },
{ "type": "Feature", "properties": { "u": 1938412244, "v": 1938412163, "key": 0, "osmid": "34238293", "highway": [ "trunk" ], "oneway": false, "reversed": "True", "length": 98.543814569709184, "lanes": "4", "name": "国道12号", "ref": "12", "bridge": null, "maxspeed": null, "tunnel": null, "priority": 4 }, "geometry": { "type": "LineString", "coordinates": [ [ 141.8855513, 43.4178178 ], [ 141.8852822, 43.4169534 ] ] } },
{ "type": "Feature", "properties": { "u": 1938412320, "v": 1938412244, "key": 0, "osmid": "34238293", "highway": [ "trunk" ], "oneway": false, "reversed": "True", "length": 92.134138957619854, "lanes": "4", "name": "国道12号", "ref": "12", "bridge": null, "maxspeed": null, "tunnel": null, "priority": 4 }, "geometry": { "type": "LineString", "coordinates": [ [ 141.885785700000014, 43.4186287 ], [ 141.8855513, 43.4178178 ] ] } },
{ "type": "Feature", "properties": { "u": 1938412320, "v": 1938412467, "key": 0, "osmid": [ 183466245, 34238293, 183466247 ], "highway": [ "trunk" ], "oneway": false, "reversed": "False", "length": 193.17445011901242, "lanes": "4", "name": "国道12号", "ref": "12", "bridge": "yes", "maxspeed": null, "tunnel": null, "priority": 4 }, "geometry": { "type": "LineString", "coordinates": [ [ 141.885785700000014, 43.4186287 ], [ 141.8860161, 43.4194151 ], [ 141.886144699999988, 43.4198895 ], [ 141.8862748, 43.4203292 ] ] } },
{ "type": "Feature", "properties": { "u": 1938412467, "v": 1938412531, "key": 0, "osmid": "183466247", "highway": [ "trunk" ], "oneway": false, "reversed": "False", "length": 81.357932771632449, "lanes": "4", "name": "国道12号", "ref": "12", "bridge": null, "maxspeed": null, "tunnel": null, "priority": 4 }, "geometry": { "type": "LineString", "coordinates": [ [ 141.8862748, 43.4203292 ], [ 141.886467900000014, 43.4210473 ] ] } },
{ "type": "Feature", "properties": { "u": 1938412467, "v": 1938412320, "key": 0, "osmid": [ 34238293, 183466245, 183466247 ], "highway": [ "trunk" ], "oneway": false, "reversed": "True", "length": 193.17445011901242, "lanes": "4", "name": "国道12号", "ref": "12", "bridge": "yes", "maxspeed": null, "tunnel": null, "priority": 4 }, "geometry": { "type": "LineString", "coordinates": [ [ 141.8862748, 43.4203292 ], [ 141.886144699999988, 43.4198895 ], [ 141.8860161, 43.4194151 ], [ 141.885785700000014, 43.4186287 ] ] } },
{ "type": "Feature", "properties": { "u": 1938412531, "v": 1938412467, "key": 0, "osmid": "183466247", "highway": [ "trunk" ], "oneway": false, "reversed": "True", "length": 81.357932771632449, "lanes": "4", "name": "国道12号", "ref": "12", "bridge": null, "maxspeed": null, "tunnel": null, "priority": 4 }, "geometry": { "type": "LineString", "coordinates": [ [ 141.886467900000014, 43.4210473 ], [ 141.8862748, 43.4203292 ] ] } },
{ "type": "Feature", "properties": { "u": 1938412531, "v": 392661608, "key": 0, "osmid": "183466247", "highway": [ "trunk" ], "oneway": false, "reversed": "False", "length": 99.404213356859813, "lanes": "4", "name": "国道12号", "ref": "12", "bridge": null, "maxspeed": null, "tunnel": null, "priority": 4 }, "geometry": { "type": "LineString", "coordinates": [ [ 141.886467900000014, 43.4210473 ], [ 141.8866756, 43.4217673 ], [ 141.886714399999988, 43.4219231 ] ] } },
{ "type": "Feature", "properties": { "u": 1938412708, "v": 6590120530, "key": 0, "osmid": "183465917", "highway": [ "trunk" ], "oneway": false, "reversed": "False", "length": 75.749733906530878, "lanes": "2", "name": "国道12号", "ref": "12", "bridge": null, "maxspeed": null, "tunnel": null, "priority": 4 }, "geometry": { "type": "LineString", "coordinates": [ [ 141.8870316, 43.4229903 ], [ 141.8872039, 43.4235741 ], [ 141.88722820000001, 43.4236564 ] ] } },
{ "type": "Feature", "properties": { "u": 1938412708, "v": 392661608, "key": 0, "osmid": "183465917", "highway": [ "trunk" ], "oneway": false, "reversed": "True", "length": 121.40110531002222, "lanes": "2", "name": "国道12号", "ref": "12", "bridge": null, "maxspeed": null, "tunnel": null, "priority": 4 }, "geometry": { "type": "LineString", "coordinates": [ [ 141.8870316, 43.4229903 ], [ 141.8867634, 43.4220859 ], [ 141.886714399999988, 43.4219231 ] ] } },
{ "type": "Feature", "properties": { "u": 1938412829, "v": 6590120530, "key": 0, "osmid": "183465917", "highway": [ "trunk" ], "oneway": false, "reversed": "True", "length": 66.254741848216966, "lanes": "2", "name": "国道12号", "ref": "12", "bridge": null, "maxspeed": null, "tunnel": null, "priority": 4 }, "geometry": { "type": "LineString", "coordinates": [ [ 141.8874002, 43.424239 ], [ 141.887380900000011, 43.4241736 ], [ 141.88722820000001, 43.4236564 ] ] } },
{ "type": "Feature", "properties": { "u": 1938412829, "v": 8548106501, "key": 0, "osmid": "920654523", "highway": [ "trunk" ], "oneway": false, "reversed": "False", "length": 93.525427340461931, "lanes": "2", "name": "国道12号", "ref": "12", "bridge": null, "maxspeed": null, "tunnel": null, "priority": 4 }, "geometry": { "type": "LineString", "coordinates": [ [ 141.8874002, 43.424239 ], [ 141.8874333, 43.4243512 ], [ 141.887643, 43.4250614 ] ] } },
{ "type": "Feature", "properties": { "u": 1938413086, "v": 1938413147, "key": 0, "osmid": "815757987", "highway": [ "trunk" ], "oneway": false, "reversed": "False", "length": 89.94943972427464, "lanes": "2", "name": "国道12号", "ref": "12", "bridge": null, "maxspeed": null, "tunnel": null, "priority": 4 }, "geometry": { "type": "LineString", "coordinates": [ [ 141.8881747, 43.4268909 ], [ 141.8884047, 43.4276824 ] ] } },
{ "type": "Feature", "properties": { "u": 1938413086, "v": 3010041356, "key": 0, "osmid": "815757988", "highway": [ "trunk" ], "oneway": false, "reversed": "True", "length": 102.30285194543232, "lanes": "2", "name": "国道12号", "ref": "12", "bridge": null, "maxspeed": null, "tunnel": null, "priority": 4 }, "geometry": { "type": "LineString", "coordinates": [ [ 141.8881747, 43.4268909 ], [ 141.8879131, 43.4259907 ] ] } },
{ "type": "Feature", "properties": { "u": 1938413147, "v": 1938413193, "key": 0, "osmid": "815757987", "highway": [ "trunk" ], "oneway": false, "reversed": "False", "length": 98.888905628635243, "lanes": "2", "name": "国道12号", "ref": "12", "bridge": null, "maxspeed": null, "tunnel": null, "priority": 4 }, "geometry": { "type": "LineString", "coordinates": [ [ 141.8884047, 43.4276824 ], [ 141.8886612, 43.428552 ] ] } },
{ "type": "Feature", "properties": { "u": 1938413147, "v": 1938413086, "key": 0, "osmid": "815757987", "highway": [ "trunk" ], "oneway": false, "reversed": "True", "length": 89.94943972427464, "lanes": "2", "name": "国道12号", "ref": "12", "bridge": null, "maxspeed": null, "tunnel": null, "priority": 4 }, "geometry": { "type": "LineString", "coordinates": [ [ 141.8884047, 43.4276824 ], [ 141.8881747, 43.4268909 ] ] } },
{ "type": "Feature", "properties": { "u": 1938413193, "v": 1938413207, "key": 0, "osmid": "815757987", "highway": [ "trunk" ], "oneway": false, "reversed": "False", "length": 52.59406111750225, "lanes": "2", "name": "国道12号", "ref": "12", "bridge": null, "maxspeed": null, "tunnel": null, "priority": 4 }, "geometry": { "type": "LineString", "coordinates": [ [ 141.8886612, 43.428552 ], [ 141.8887976, 43.4290145 ] ] } },
{ "type": "Feature", "properties": { "u": 1938413193, "v": 1938413147, "key": 0, "osmid": "815757987", "highway": [ "trunk" ], "oneway": false, "reversed": "True", "length": 98.888905628635243, "lanes": "2", "name": "国道12号", "ref": "12", "bridge": null, "maxspeed": null, "tunnel": null, "priority": 4 }, "geometry": { "type": "LineString", "coordinates": [ [ 141.8886612, 43.428552 ], [ 141.8884047, 43.4276824 ] ] } },
{ "type": "Feature", "properties": { "u": 1938413207, "v": 1938413247, "key": 0, "osmid": "815757987", "highway": [ "trunk" ], "oneway": false, "reversed": "False", "length": 42.575291936772011, "lanes": "2", "name": "国道12号", "ref": "12", "bridge": null, "maxspeed": null, "tunnel": null, "priority": 4 }, "geometry": { "type": "LineString", "coordinates": [ [ 141.8887976, 43.4290145 ], [ 141.888908, 43.4293889 ] ] } },
{ "type": "Feature", "properties": { "u": 1938413207, "v": 1938413193, "key": 0, "osmid": "815757987", "highway": [ "trunk" ], "oneway": false, "reversed": "True", "length": 52.59406111750225, "lanes": "2", "name": "国道12号", "ref": "12", "bridge": null, "maxspeed": null, "tunnel": null, "priority": 4 }, "geometry": { "type": "LineString", "coordinates": [ [ 141.8887976, 43.4290145 ], [ 141.8886612, 43.428552 ] ] } },
{ "type": "Feature", "properties": { "u": 1938413247, "v": 1938413251, "key": 0, "osmid": "815757987", "highway": [ "trunk" ], "oneway": false, "reversed": "False", "length": 10.132554493758599, "lanes": "2", "name": "国道12号", "ref": "12", "bridge": null, "maxspeed": null, "tunnel": null, "priority": 4 }, "geometry": { "type": "LineString", "coordinates": [ [ 141.888908, 43.4293889 ], [ 141.888934299999988, 43.429478 ] ] } },
{ "type": "Feature", "properties": { "u": 1938413247, "v": 1938413207, "key": 0, "osmid": "815757987", "highway": [ "trunk" ], "oneway": false, "reversed": "True", "length": 42.575291936772011, "lanes": "2", "name": "国道12号", "ref": "12", "bridge": null, "maxspeed": null, "tunnel": null, "priority": 4 }, "geometry": { "type": "LineString", "coordinates": [ [ 141.888908, 43.4293889 ], [ 141.8887976, 43.4290145 ] ] } },
{ "type": "Feature", "properties": { "u": 1938413251, "v": 1938413283, "key": 0, "osmid": "815757987", "highway": [ "trunk" ], "oneway": false, "reversed": "False", "length": 56.517683004953575, "lanes": "2", "name": "国道12号", "ref": "12", "bridge": null, "maxspeed": null, "tunnel": null, "priority": 4 }, "geometry": { "type": "LineString", "coordinates": [ [ 141.888934299999988, 43.429478 ], [ 141.88908090000001, 43.429975 ] ] } },
{ "type": "Feature", "properties": { "u": 1938413251, "v": 1938413247, "key": 0, "osmid": "815757987", "highway": [ "trunk" ], "oneway": false, "reversed": "True", "length": 10.132554493758599, "lanes": "2", "name": "国道12号", "ref": "12", "bridge": null, "maxspeed": null, "tunnel": null, "priority": 4 }, "geometry": { "type": "LineString", "coordinates": [ [ 141.888934299999988, 43.429478 ], [ 141.888908, 43.4293889 ] ] } },
{ "type": "Feature", "properties": { "u": 1938413283, "v": 1938413337, "key": 0, "osmid": "815757987", "highway": [ "trunk" ], "oneway": false, "reversed": "False", "length": 65.887900229846764, "lanes": "2", "name": "国道12号", "ref": "12", "bridge": null, "maxspeed": null, "tunnel": null, "priority": 4 }, "geometry": { "type": "LineString", "coordinates": [ [ 141.88908090000001, 43.429975 ], [ 141.889251800000011, 43.4305544 ] ] } },
{ "type": "Feature", "properties": { "u": 1938413283, "v": 1938413251, "key": 0, "osmid": "815757987", "highway": [ "trunk" ], "oneway": false, "reversed": "True", "length": 56.517683004953575, "lanes": "2", "name": "国道12号", "ref": "12", "bridge": null, "maxspeed": null, "tunnel": null, "priority": 4 }, "geometry": { "type": "LineString", "coordinates": [ [ 141.88908090000001, 43.429975 ], [ 141.888934299999988, 43.429478 ] ] } },
{ "type": "Feature", "properties": { "u": 1938413337, "v": 1938413370, "key": 0, "osmid": "815757987", "highway": [ "trunk" ], "oneway": false, "reversed": "False", "length": 39.117673715043665, "lanes": "2", "name": "国道12号", "ref": "12", "bridge": null, "maxspeed": null, "tunnel": null, "priority": 4 }, "geometry": { "type": "LineString", "coordinates": [ [ 141.889251800000011, 43.4305544 ], [ 141.889353199999988, 43.4308984 ] ] } },
{ "type": "Feature", "properties": { "u": 1938413337, "v": 1938413283, "key": 0, "osmid": "815757987", "highway": [ "trunk" ], "oneway": false, "reversed": "True", "length": 65.887900229846764, "lanes": "2", "name": "国道12号", "ref": "12", "bridge": null, "maxspeed": null, "tunnel": null, "priority": 4 }, "geometry": { "type": "LineString", "coordinates": [ [ 141.889251800000011, 43.4305544 ], [ 141.88908090000001, 43.429975 ] ] } },
{ "type": "Feature", "properties": { "u": 1938413370, "v": 501816742, "key": 0, "osmid": "815757987", "highway": [ "trunk" ], "oneway": false, "reversed": "False", "length": 106.39926896894194, "lanes": "2", "name": "国道12号", "ref": "12", "bridge": null, "maxspeed": null, "tunnel": null, "priority": 4 }, "geometry": { "type": "LineString", "coordinates": [ [ 141.889353199999988, 43.4308984 ], [ 141.8896581, 43.4318293 ] ] } },
{ "type": "Feature", "properties": { "u": 1938413370, "v": 1938413337, "key": 0, "osmid": "815757987", "highway": [ "trunk" ], "oneway": false, "reversed": "True", "length": 39.117673715043665, "lanes": "2", "name": "国道12号", "ref": "12", "bridge": null, "maxspeed": null, "tunnel": null, "priority": 4 }, "geometry": { "type": "LineString", "coordinates": [ [ 141.889353199999988, 43.4308984 ], [ 141.889251800000011, 43.4305544 ] ] } },
{ "type": "Feature", "properties": { "u": 2350611965, "v": 1938412036, "key": 0, "osmid": "183466248", "highway": [ "trunk" ], "oneway": true, "reversed": "False", "length": 340.60159612159362, "lanes": "2", "name": "国道12号", "ref": "12", "bridge": null, "maxspeed": null, "tunnel": null, "priority": 4 }, "geometry": { "type": "LineString", "coordinates": [ [ 141.8828552, 43.4090269 ], [ 141.8837464, 43.4120208 ] ] } },
{ "type": "Feature", "properties": { "u": 2350615424, "v": 2350615478, "key": 0, "osmid": "33995218", "highway": [ "trunk" ], "oneway": true, "reversed": "False", "length": 65.742706215829074, "lanes": "2", "name": "国道12号", "ref": "12", "bridge": null, "maxspeed": null, "tunnel": null, "priority": 4 }, "geometry": { "type": "LineString", "coordinates": [ [ 141.89052860000001, 43.4350734 ], [ 141.8906934, 43.4356524 ] ] } },
{ "type": "Feature", "properties": { "u": 2350615478, "v": 2350615586, "key": 0, "osmid": "33995218", "highway": [ "trunk" ], "oneway": true, "reversed": "False", "length": 133.92321391278028, "lanes": "2", "name": "国道12号", "ref": "12", "bridge": null, "maxspeed": null, "tunnel": null, "priority": 4 }, "geometry": { "type": "LineString", "coordinates": [ [ 141.8906934, 43.4356524 ], [ 141.8910439, 43.4368296 ] ] } },
{ "type": "Feature", "properties": { "u": 2350615586, "v": 2350616001, "key": 0, "osmid": "33995218", "highway": [ "trunk" ], "oneway": true, "reversed": "False", "length": 190.30277542908073, "lanes": "2", "name": "国道12号", "ref": "12", "bridge": null, "maxspeed": null, "tunnel": null, "priority": 4 }, "geometry": { "type": "LineString", "coordinates": [ [ 141.8910439, 43.4368296 ], [ 141.8915335, 43.4385037 ] ] } },
{ "type": "Feature", "properties": { "u": 2350616001, "v": 2350616321, "key": 0, "osmid": "33995218", "highway": [ "trunk" ], "oneway": true, "reversed": "False", "length": 372.28097820587789, "lanes": "2", "name": "国道12号", "ref": "12", "bridge": null, "maxspeed": null, "tunnel": null, "priority": 4 }, "geometry": { "type": "LineString", "coordinates": [ [ 141.8915335, 43.4385037 ], [ 141.8924833, 43.4417799 ] ] } },
{ "type": "Feature", "properties": { "u": 2350616321, "v": 2350616676, "key": 0, "osmid": "33995218", "highway": [ "trunk" ], "oneway": true, "reversed": "False", "length": 565.34035196813852, "lanes": "2", "name": "国道12号", "ref": "12", "bridge": null, "maxspeed": null, "tunnel": null, "priority": 4 }, "geometry": { "type": "LineString", "coordinates": [ [ 141.8924833, 43.4417799 ], [ 141.8939224, 43.4467556 ] ] } },
{ "type": "Feature", "properties": { "u": 2350616676, "v": 389414190, "key": 0, "osmid": "33995218", "highway": [ "trunk" ], "oneway": true, "reversed": "False", "length": 565.24099033358902, "lanes": "2", "name": "国道12号", "ref": "12", "bridge": null, "maxspeed": null, "tunnel": null, "priority": 4 }, "geometry": { "type": "LineString", "coordinates": [ [ 141.8939224, 43.4467556 ], [ 141.895425, 43.4517205 ] ] } },
{ "type": "Feature", "properties": { "u": 2350616840, "v": 2350616866, "key": 0, "osmid": "33995218", "highway": [ "trunk" ], "oneway": true, "reversed": "False", "length": 375.80802169572337, "lanes": "2", "name": "国道12号", "ref": "12", "bridge": null, "maxspeed": null, "tunnel": null, "priority": 4 }, "geometry": { "type": "LineString", "coordinates": [ [ 141.895894199999987, 43.4533844 ], [ 141.8968639, 43.45669 ] ] } },
{ "type": "Feature", "properties": { "u": 2350616867, "v": 389414188, "key": 0, "osmid": "33995217", "highway": [ "trunk" ], "oneway": true, "reversed": "False", "length": 564.46328309956493, "lanes": "2", "name": "国道12号", "ref": "12", "bridge": null, "maxspeed": null, "tunnel": null, "priority": 4 }, "geometry": { "type": "LineString", "coordinates": [ [ 141.8969931, 43.4566699 ], [ 141.8955627, 43.4517009 ] ] } },
{ "type": "Feature", "properties": { "u": 2977966781, "v": 3010041376, "key": 0, "osmid": "33995217", "highway": [ "trunk" ], "oneway": true, "reversed": "False", "length": 562.93540582794537, "lanes": "2", "name": "国道12号", "ref": "12", "bridge": null, "maxspeed": null, "tunnel": null, "priority": 4 }, "geometry": { "type": "LineString", "coordinates": [ [ 141.8926227, 43.4417588 ], [ 141.891187, 43.4368047 ] ] } },
{ "type": "Feature", "properties": { "u": 3010041356, "v": 1938413086, "key": 0, "osmid": "815757988", "highway": [ "trunk" ], "oneway": false, "reversed": "False", "length": 102.30285194543232, "lanes": "2", "name": "国道12号", "ref": "12", "bridge": null, "maxspeed": null, "tunnel": null, "priority": 4 }, "geometry": { "type": "LineString", "coordinates": [ [ 141.8879131, 43.4259907 ], [ 141.8881747, 43.4268909 ] ] } },
{ "type": "Feature", "properties": { "u": 3010041356, "v": 8548106501, "key": 0, "osmid": "815757988", "highway": [ "trunk" ], "oneway": false, "reversed": "True", "length": 105.61070246843894, "lanes": "2", "name": "国道12号", "ref": "12", "bridge": null, "maxspeed": null, "tunnel": null, "priority": 4 }, "geometry": { "type": "LineString", "coordinates": [ [ 141.8879131, 43.4259907 ], [ 141.887643, 43.4250614 ] ] } },
{ "type": "Feature", "properties": { "u": 3010041376, "v": 7838309219, "key": 0, "osmid": "33995217", "highway": [ "trunk" ], "oneway": true, "reversed": "False", "length": 133.81428236463094, "lanes": "2", "name": "国道12号", "ref": "12", "bridge": null, "maxspeed": null, "tunnel": null, "priority": 4 }, "geometry": { "type": "LineString", "coordinates": [ [ 141.891187, 43.4368047 ], [ 141.890841, 43.4356278 ] ] } },
{ "type": "Feature", "properties": { "u": 3010041389, "v": 2977966781, "key": 0, "osmid": "33995217", "highway": [ "trunk" ], "oneway": true, "reversed": "False", "length": 565.34950073581956, "lanes": "2", "name": "国道12号", "ref": "12", "bridge": null, "maxspeed": null, "tunnel": null, "priority": 4 }, "geometry": { "type": "LineString", "coordinates": [ [ 141.894105599999989, 43.4467278 ], [ 141.8926227, 43.4417588 ] ] } },
{ "type": "Feature", "properties": { "u": 6590120530, "v": 1938412829, "key": 0, "osmid": "183465917", "highway": [ "trunk" ], "oneway": false, "reversed": "False", "length": 66.254741848216966, "lanes": "2", "name": "国道12号", "ref": "12", "bridge": null, "maxspeed": null, "tunnel": null, "priority": 4 }, "geometry": { "type": "LineString", "coordinates": [ [ 141.88722820000001, 43.4236564 ], [ 141.887380900000011, 43.4241736 ], [ 141.8874002, 43.424239 ] ] } },
{ "type": "Feature", "properties": { "u": 6590120530, "v": 1938412708, "key": 0, "osmid": "183465917", "highway": [ "trunk" ], "oneway": false, "reversed": "True", "length": 75.749733906530878, "lanes": "2", "name": "国道12号", "ref": "12", "bridge": null, "maxspeed": null, "tunnel": null, "priority": 4 }, "geometry": { "type": "LineString", "coordinates": [ [ 141.88722820000001, 43.4236564 ], [ 141.8872039, 43.4235741 ], [ 141.8870316, 43.4229903 ] ] } },
{ "type": "Feature", "properties": { "u": 7838309217, "v": 1938411939, "key": 0, "osmid": [ 34238297, 682230202, 682230201 ], "highway": [ "trunk" ], "oneway": true, "reversed": "False", "length": 471.17851381430523, "lanes": "2", "name": "国道12号", "ref": "12", "bridge": "yes", "maxspeed": "50", "tunnel": null, "priority": 4 }, "geometry": { "type": "LineString", "coordinates": [ [ 141.882990799999988, 43.4090016 ], [ 141.8822045, 43.4063838 ], [ 141.88207890000001, 43.405953 ], [ 141.8817602, 43.4048596 ] ] } },
{ "type": "Feature", "properties": { "u": 7838309218, "v": 389414184, "key": 0, "osmid": "33995217", "highway": [ "trunk" ], "oneway": true, "reversed": "False", "length": 181.84029810950133, "lanes": "2", "name": "国道12号", "ref": "12", "bridge": null, "maxspeed": null, "tunnel": null, "priority": 4 }, "geometry": { "type": "LineString", "coordinates": [ [ 141.890673099999987, 43.4350566 ], [ 141.890203, 43.4334573 ] ] } },
{ "type": "Feature", "properties": { "u": 7838309219, "v": 7838309218, "key": 0, "osmid": "33995217", "highway": [ "trunk" ], "oneway": true, "reversed": "False", "length": 64.945363513486626, "lanes": "2", "name": "国道12号", "ref": "12", "bridge": null, "maxspeed": null, "tunnel": null, "priority": 4 }, "geometry": { "type": "LineString", "coordinates": [ [ 141.890841, 43.4356278 ], [ 141.890673099999987, 43.4350566 ] ] } },
{ "type": "Feature", "properties": { "u": 8548106501, "v": 3010041356, "key": 0, "osmid": "815757988", "highway": [ "trunk" ], "oneway": false, "reversed": "False", "length": 105.61070246843894, "lanes": "2", "name": "国道12号", "ref": "12", "bridge": null, "maxspeed": null, "tunnel": null, "priority": 4 }, "geometry": { "type": "LineString", "coordinates": [ [ 141.887643, 43.4250614 ], [ 141.8879131, 43.4259907 ] ] } },
{ "type": "Feature", "properties": { "u": 8548106501, "v": 1938412829, "key": 0, "osmid": "920654523", "highway": [ "trunk" ], "oneway": false, "reversed": "True", "length": 93.525427340461931, "lanes": "2", "name": "国道12号", "ref": "12", "bridge": null, "maxspeed": null, "tunnel": null, "priority": 4 }, "geometry": { "type": "LineString", "coordinates": [ [ 141.887643, 43.4250614 ], [ 141.8874333, 43.4243512 ], [ 141.8874002, 43.424239 ] ] } }
]
}
